{"type": "FeatureCollection", "features": [ {"type": "Feature", "properties": {"norad_id": 30594, "name": "FENGYUN 1C DEB", "group": "fengyun-1c-debris", "lat": -52.83326414436506, "lon": 2.1061993931006406, "alt_km": 877.6892451138528, "timestamp": "2025-12-04T10:51:50.382886+00:00", "meta": {"OBJECT_NAME": "FENGYUN 1C DEB", "OBJECT_ID": "1999-025ALZ", "EPOCH": "2025-12-03T13:25:12.140256", "MEAN_MOTION": 14.17326532, "ECCENTRICITY": 0.01938147, "INCLINATION": 99.152, "RA_OF_ASC_NODE": 193.4631, "ARG_OF_PERICENTER": 342.4171, "MEAN_ANOMALY": 17.0355, "EPHEMERIS_TYPE": 0, "CLASSIFICATION_TYPE": "U", "NORAD_CAT_ID": 30594, "ELEMENT_SET_NO": 999, "REV_AT_EPOCH": 97449, "BSTAR": 0.00025855225, "MEAN_MOTION_DOT": 5.79e-06, "MEAN_MOTION_DDOT": 0}, "tle": {"line1": "1 30594U 99025ALZ 25337.55916829  .00000579  00000+0  25855-3 0  9999", "line2": "2 30594  99.1520 193.4631 0193814 342.4171  17.0355 14.17326532974492"}}, "geometry": {"type": "Point", "coordinates": [2.1061993931006406, -52.83326414436506]}}, {"type": "Feature", "properties": {"norad_id": 30596, "name": "FENGYUN 1C DEB", "group": "fengyun-1c-debris", "lat": 58.688154657432236, "lon": -37.69619604522312, "alt_km": 816.0910671400425, "timestamp": "2025-12-04T10:51:50.382896+00:00", "meta": {"OBJECT_NAME": "FENGYUN 1C DEB", "OBJECT_ID": "1999-025AMB", "EPOCH": "2025-12-03T16:25:38.939808", "MEAN_MOTION": 14.34311075, "ECCENTRICITY": 0.02478111, "INCLINATION": 98.4123, "RA_OF_ASC_NODE": 335.6352, "ARG_OF_PERICENTER": 316.1878, "MEAN_ANOMALY": 96.5786, "EPHEMERIS_TYPE": 0, "CLASSIFICATION_TYPE": "U", "NORAD_CAT_ID": 30596, "ELEMENT_SET_NO": 999, "REV_AT_EPOCH": 98431, "BSTAR": 0.00072731184, "MEAN_MOTION_DOT": 2.834e-05, "MEAN_MOTION_DDOT": 0}, "tle": {"line1": "1 30596U 99025AMB 25337.68447847  .00002834  00000+0  72731-3 0  9995", "line2": "2 30596  98.4123 335.6352 0247811 316.1878  96.5786 14.34311075984311"}}, "geometry": {"type": "Point", "coordinates": [-37.69619604522312, 58.688154657432236]}}, {"type": "Feature", "properties": {"norad_id": 30597, "name": "FENGYUN 1C DEB", "group": "fengyun-1c-debris", "lat": 20.418284380590567, "lon": -89.5483408172517, "alt_km": 624.7522422264947, "timestamp": "2025-12-04T10:51:50.382905+00:00", "meta": {"OBJECT_NAME": "FENGYUN 1C DEB", "OBJECT_ID": "1999-025AMC", "EPOCH": "2025-12-03T18:39:53.711136", "MEAN_MOTION": 14.90995227, "ECCENTRICITY": 0.00439486, "INCLINATION": 98.9402, "RA_OF_ASC_NODE": 273.0474, "ARG_OF_PERICENTER": 193.6742, "MEAN_ANOMALY": 166.3286, "EPHEMERIS_TYPE": 0, "CLASSIFICATION_TYPE": "U", "NORAD_CAT_ID": 30597, "ELEMENT_SET_NO": 999, "REV_AT_EPOCH": 98403, "BSTAR": 0.0073154374, "MEAN_MOTION_DOT": 0.00074323, "MEAN_MOTION_DDOT": 0}, "tle": {"line1": "1 30597U 99025AMC 25337.77770499  .00074323  00000+0  73154-2 0  9999", "line2": "2 30597  98.9402 273.0474 0043948 193.6742 166.3286 14.90995227984039"}}, "geometry": {"type": "Point", "coordinates": [-89.5483408172517, 20.418284380590567]}}, {"type": "Feature", "properties": {"norad_id": 30599, "name": "FENGYUN 1C DEB", "group": "fengyun-1c-debris", "lat": 76.53156609321846, "lon": -150.49663684037276, "alt_km": 818.9470434094292, "timestamp": "2025-12-04T10:51:50.382916+00:00", "meta": {"OBJECT_NAME": "FENGYUN 1C DEB", "OBJECT_ID": "1999-025AME", "EPOCH": "2025-12-03T07:20:51.743616", "MEAN_MOTION": 14.19615051, "ECCENTRICITY": 0.0303096, "INCLINATION": 98.6033, "RA_OF_ASC_NODE": 349.1805, "ARG_OF_PERICENTER": 12.0705, "MEAN_ANOMALY": 348.7529, "EPHEMERIS_TYPE": 0, "CLASSIFICATION_TYPE": "U", "NORAD_CAT_ID": 30599, "ELEMENT_SET_NO": 999, "REV_AT_EPOCH": 97033, "BSTAR": 0.0011332, "MEAN_MOTION_DOT": 3.745e-05, "MEAN_MOTION_DDOT": 0}, "tle": {"line1": "1 30599U 99025AME 25337.30615444  .00003745  00000+0  11332-2 0  9998", "line2": "2 30599  98.6033 349.1805 0303096  12.0705 348.7529 14.19615051970336"}}, "geometry": {"type": "Point", "coordinates": [-150.49663684037276, 76.53156609321846]}}, {"type": "Feature", "properties": {"norad_id": 30600, "name": "FENGYUN 1C DEB", "group": "fengyun-1c-debris", "lat": -23.460284333018713, "lon": 100.10337124454331, "alt_km": 776.6725178737997, "timestamp": "2025-12-04T10:51:50.382926+00:00", "meta": {"OBJECT_NAME": "FENGYUN 1C DEB", "OBJECT_ID": "1999-025AMF", "EPOCH": "2025-11-30T15:24:54.916992", "MEAN_MOTION": 14.07030871, "ECCENTRICITY": 0.0330604, "INCLINATION": 98.3855, "RA_OF_ASC_NODE": 280.231, "ARG_OF_PERICENTER": 282.0902, "MEAN_ANOMALY": 74.3412, "EPHEMERIS_TYPE": 0, "CLASSIFICATION_TYPE": "U", "NORAD_CAT_ID": 30600, "ELEMENT_SET_NO": 999, "REV_AT_EPOCH": 94262, "BSTAR": 0.0058342, "MEAN_MOTION_DOT": 0.00016035, "MEAN_MOTION_DDOT": 0}, "tle": {"line1": "1 30600U 99025AMF 25334.64230228  .00016035  00000+0  58342-2 0  9996", "line2": "2 30600  98.3855 280.2310 0330604 282.0902  74.3412 14.07030871942629"}}, "geometry": {"type": "Point", "coordinates": [100.10337124454331, -23.460284333018713]}}, {"type": "Feature", "properties": {"norad_id": 30602, "name": "FENGYUN 1C DEB", "group": "fengyun-1c-debris", "lat": -80.47333645391548, "lon": -0.2849093240091268, "alt_km": 610.0974446052314, "timestamp": "2025-12-04T10:51:50.382936+00:00", "meta": {"OBJECT_NAME": "FENGYUN 1C DEB", "OBJECT_ID": "1999-025AMH", "EPOCH": "2025-12-03T17:47:14.917632", "MEAN_MOTION": 14.89067175, "ECCENTRICITY": 0.00072868, "INCLINATION": 99.0336, "RA_OF_ASC_NODE": 250.3448, "ARG_OF_PERICENTER": 150.4919, "MEAN_ANOMALY": 264.2589, "EPHEMERIS_TYPE": 0, "CLASSIFICATION_TYPE": "U", "NORAD_CAT_ID": 30602, "ELEMENT_SET_NO": 999, "REV_AT_EPOCH": 97671, "BSTAR": 0.011887003, "MEAN_MOTION_DOT": 0.00113826, "MEAN_MOTION_DDOT": 0}, "tle": {"line1": "1 30602U 99025AMH 25337.74114488  .00113826  00000+0  11887-1 0  9999", "line2": "2 30602  99.0336 250.3448 0007286 150.4919 264.2589 14.89067175976715"}}, "geometry": {"type": "Point", "coordinates": [-0.2849093240091268, -80.47333645391548]}}, {"type": "Feature", "properties": {"norad_id": 30603, "name": "FENGYUN 1C DEB", "group": "fengyun-1c-debris", "lat": 49.27186533311789, "lon": -167.87581604104844, "alt_km": 961.2961581002746, "timestamp": "2025-12-04T10:51:50.382946+00:00", "meta": {"OBJECT_NAME": "FENGYUN 1C DEB", "OBJECT_ID": "1999-025AMJ", "EPOCH": "2025-12-02T01:06:38.105568", "MEAN_MOTION": 13.84066911, "ECCENTRICITY": 0.01829228, "INCLINATION": 98.4104, "RA_OF_ASC_NODE": 0.074, "ARG_OF_PERICENTER": 234.5598, "MEAN_ANOMALY": 153.8128, "EPHEMERIS_TYPE": 0, "CLASSIFICATION_TYPE": "U", "NORAD_CAT_ID": 30603, "ELEMENT_SET_NO": 999, "REV_AT_EPOCH": 94728, "BSTAR": 0.0014668065, "MEAN_MOTION_DOT": 1.819e-05, "MEAN_MOTION_DDOT": 0}, "tle": {"line1": "1 30603U 99025AMJ 25336.04627437  .00001819  00000+0  14668-2 0  9994", "line2": "2 30603  98.4104   0.0740 0182922 234.5598 153.8128 13.84066911947288"}}, "geometry": {"type": "Point", "coordinates": [-167.87581604104844, 49.27186533311789]}}, {"type": "Feature", "properties": {"norad_id": 30604, "name": "FENGYUN 1C DEB", "group": "fengyun-1c-debris", "lat": 60.90579101563902, "lon": -1.751495378516199, "alt_km": 676.8740439347221, "timestamp": "2025-12-04T10:51:50.382957+00:00", "meta": {"OBJECT_NAME": "FENGYUN 1C DEB", "OBJECT_ID": "1999-025AMK", "EPOCH": "2025-12-03T13:22:29.164800", "MEAN_MOTION": 14.23585367, "ECCENTRICITY": 0.02102419, "INCLINATION": 98.4036, "RA_OF_ASC_NODE": 12.7982, "ARG_OF_PERICENTER": 33.6981, "MEAN_ANOMALY": 121.027, "EPHEMERIS_TYPE": 0, "CLASSIFICATION_TYPE": "U", "NORAD_CAT_ID": 30604, "ELEMENT_SET_NO": 999, "REV_AT_EPOCH": 97708, "BSTAR": 0.00041869288, "MEAN_MOTION_DOT": 1.154e-05, "MEAN_MOTION_DDOT": 0}, "tle": {"line1": "1 30604U 99025AMK 25337.55728200  .00001154  00000+0  41869-3 0  9998", "line2": "2 30604  98.4036  12.7982 0210241  33.6981 121.0270 14.23585367977082"}}, "geometry": {"type": "Point", "coordinates": [-1.751495378516199, 60.90579101563902]}}, {"type": "Feature", "properties": {"norad_id": 30606, "name": "FENGYUN 1C DEB", "group": "fengyun-1c-debris", "lat": 61.48803839515712, "lon": -175.978709377074, "alt_km": 587.4406703176037, "timestamp": "2025-12-04T10:51:50.382967+00:00", "meta": {"OBJECT_NAME": "FENGYUN 1C DEB", "OBJECT_ID": "1999-025AMM", "EPOCH": "2025-12-03T13:29:53.970144", "MEAN_MOTION": 14.57532958, "ECCENTRICITY": 0.02138983, "INCLINATION": 98.096, "RA_OF_ASC_NODE": 347.9639, "ARG_OF_PERICENTER": 165.6956, "MEAN_ANOMALY": 324.9977, "EPHEMERIS_TYPE": 0, "CLASSIFICATION_TYPE": "U", "NORAD_CAT_ID": 30606, "ELEMENT_SET_NO": 999, "REV_AT_EPOCH": 99108, "BSTAR": 0.00087947161, "MEAN_MOTION_DOT": 5.43e-05, "MEAN_MOTION_DDOT": 0}, "tle": {"line1": "1 30606U 99025AMM 25337.56243021  .00005430  00000+0  87947-3 0  9992", "line2": "2 30606  98.0960 347.9639 0213898 165.6956 324.9977 14.57532958991086"}}, "geometry": {"type": "Point", "coordinates": [-175.978709377074, 61.48803839515712]}}, {"type": "Feature", "properties": {"norad_id": 30608, "name": "FENGYUN 1C DEB", "group": "fengyun-1c-debris", "lat": -5.4506438351041835, "lon": 41.97167246615506, "alt_km": 810.5602437209436, "timestamp": "2025-12-04T10:51:50.382977+00:00", "meta": {"OBJECT_NAME": "FENGYUN 1C DEB", "OBJECT_ID": "1999-025AMP", "EPOCH": "2025-12-03T18:39:05.851584", "MEAN_MOTION": 14.28392025, "ECCENTRICITY": 0.00156408, "INCLINATION": 98.7122, "RA_OF_ASC_NODE": 40.4592, "ARG_OF_PERICENTER": 205.0648, "MEAN_ANOMALY": 277.7761, "EPHEMERIS_TYPE": 0, "CLASSIFICATION_TYPE": "U", "NORAD_CAT_ID": 30608, "ELEMENT_SET_NO": 999, "REV_AT_EPOCH": 97311, "BSTAR": 0.0017562425, "MEAN_MOTION_DOT": 4.354e-05, "MEAN_MOTION_DDOT": 0}, "tle": {"line1": "1 30608U 99025AMP 25337.77715106  .00004354  00000+0  17562-2 0  9994", "line2": "2 30608  98.7122  40.4592 0015640 205.0648 277.7761 14.28392025973117"}}, "geometry": {"type": "Point", "coordinates": [41.97167246615506, -5.4506438351041835]}}]}